{
    "links": {
        "self": "http://www.neowsapp.com/rest/v1/neo/3973544?api_key=iIulBulltgU6a56xZRHN4H3l9WmuAYTsLGpBGhQ2"
    },
    "id": "3973544",
    "neo_reference_id": "3973544",
    "name": "(2020 AE1)",
    "designation": "2020 AE1",
    "nasa_jpl_url": "http://ssd.jpl.nasa.gov/sbdb.cgi?sstr=3973544",
    "absolute_magnitude_h": 27.6,
    "estimated_diameter": {
        "kilometers": {
            "estimated_diameter_min": 0.0080270317,
            "estimated_diameter_max": 0.0179489885
        },
        "meters": {
            "estimated_diameter_min": 8.0270316728,
            "estimated_diameter_max": 17.948988478
        },
        "miles": {
            "estimated_diameter_min": 0.0049877647,
            "estimated_diameter_max": 0.0111529809
        },
        "feet": {
            "estimated_diameter_min": 26.3354065935,
            "estimated_diameter_max": 58.8877593581
        }
    },
    "is_potentially_hazardous_asteroid": false,
    "close_approach_data": [
        {
            "close_approach_date": "2017-03-31",
            "close_approach_date_full": "2017-Mar-31 23:20",
            "epoch_date_close_approach": 1491002400000,
            "relative_velocity": {
                "kilometers_per_second": "15.6887092375",
                "kilometers_per_hour": "56479.3532549546",
                "miles_per_hour": "35094.0736933356"
            },
            "miss_distance": {
                "astronomical": "0.4108608294",
                "lunar": "159.8248626366",
                "kilometers": "61463904.944673378",
                "miles": "38191899.5507054964"
            },
            "orbiting_body": "Earth"
        },
        {
            "close_approach_date": "2020-01-13",
            "close_approach_date_full": "2020-Jan-13 13:50",
            "epoch_date_close_approach": 1578923400000,
            "relative_velocity": {
                "kilometers_per_second": "4.1714789286",
                "kilometers_per_hour": "15017.3241430265",
                "miles_per_hour": "9331.1812154267"
            },
            "miss_distance": {
                "astronomical": "0.0168284978",
                "lunar": "6.5462856442",
                "kilometers": "2517507.426179686",
                "miles": "1564306.5767682268"
            },
            "orbiting_body": "Earth"
        },
        {
            "close_approach_date": "2022-12-03",
            "close_approach_date_full": "2022-Dec-03 21:24",
            "epoch_date_close_approach": 1670102640000,
            "relative_velocity": {
                "kilometers_per_second": "17.66919047",
                "kilometers_per_hour": "63609.0856921462",
                "miles_per_hour": "39524.2121624338"
            },
            "miss_distance": {
                "astronomical": "0.4633140206",
                "lunar": "180.2291540134",
                "kilometers": "69310790.622896122",
                "miles": "43067728.2159736036"
            },
            "orbiting_body": "Earth"
        },
        {
            "close_approach_date": "2064-06-07",
            "close_approach_date_full": "2064-Jun-07 16:23",
            "epoch_date_close_approach": 2980081380000,
            "relative_velocity": {
                "kilometers_per_second": "6.7630654473",
                "kilometers_per_hour": "24347.0356102444",
                "miles_per_hour": "15128.3010990432"
            },
            "miss_distance": {
                "astronomical": "0.4404073618",
                "lunar": "171.3184637402",
                "kilometers": "65884003.257599366",
                "miles": "40938421.2844526108"
            },
            "orbiting_body": "Earth"
        },
        {
            "close_approach_date": "2143-12-04",
            "close_approach_date_full": "2143-Dec-04 18:24",
            "epoch_date_close_approach": 5488539840000,
            "relative_velocity": {
                "kilometers_per_second": "18.7737438959",
                "kilometers_per_hour": "67585.4780252656",
                "miles_per_hour": "41994.9877207546"
            },
            "miss_distance": {
                "astronomical": "0.4985205668",
                "lunar": "193.9245004852",
                "kilometers": "74577614.944472716",
                "miles": "46340381.0944708408"
            },
            "orbiting_body": "Earth"
        }
    ],
    "orbital_data": {
        "orbit_id": "1",
        "orbit_determination_date": "2020-01-04 15:12:10",
        "first_observation_date": "2020-01-04",
        "last_observation_date": "2020-01-04",
        "data_arc_in_days": null,
        "observations_used": 19,
        "orbit_uncertainty": "8",
        "minimum_orbit_intersection": ".0166207",
        "jupiter_tisserand_invariant": "5.000",
        "epoch_osculation": "2458852.5",
        "eccentricity": ".2353898608809961",
        "semi_major_axis": "1.289617984403593",
        "inclination": "4.434498837402137",
        "ascending_node_longitude": "283.3844225974667",
        "orbital_period": "534.921493300319",
        "perihelion_distance": ".9860549864652004",
        "perihelion_argument": "206.7804726533805",
        "aphelion_distance": "1.593180982341985",
        "perihelion_time": "2458878.025802043625",
        "mean_anomaly": "342.8212385353791",
        "mean_motion": ".6729959526937284",
        "equinox": "J2000",
        "orbit_class": {
            "orbit_class_type": "APO",
            "orbit_class_description": "Near-Earth asteroid orbits which cross the Earth’s orbit similar to that of 1862 Apollo",
            "orbit_class_range": "a (semi-major axis) > 1.0 AU; q (perihelion) < 1.017 AU"
        }
    },
    "is_sentry_object": false
}